TRANSPORTER-11 OBJECT A 
1 60468U 24149A   26068.74646182  .00010774  00000+0  36054-3 0  9993
2 60468  97.3780 149.0949 0003110 191.0010 169.1164 15.31141332 86830
STARLINK-35563          
1 66087U 25236B   26068.48384699  .00028413  00000+0  96792-3 0  9991
2 66087  53.1602 104.7929 0001540  70.0195 290.0972 15.30195000 22850
